{
    "links": {
        "self": "http://www.neowsapp.com/rest/v1/neo/3692559?api_key=iIulBulltgU6a56xZRHN4H3l9WmuAYTsLGpBGhQ2"
    },
    "id": "3692559",
    "neo_reference_id": "3692559",
    "name": "(2014 TT)",
    "designation": "2014 TT",
    "nasa_jpl_url": "http://ssd.jpl.nasa.gov/sbdb.cgi?sstr=3692559",
    "absolute_magnitude_h": 25.2,
    "estimated_diameter": {
        "kilometers": {
            "estimated_diameter_min": 0.0242412481,
            "estimated_diameter_max": 0.0542050786
        },
        "meters": {
            "estimated_diameter_min": 24.2412481101,
            "estimated_diameter_max": 54.2050786336
        },
        "miles": {
            "estimated_diameter_min": 0.0150628086,
            "estimated_diameter_max": 0.0336814639
        },
        "feet": {
            "estimated_diameter_min": 79.5316564495,
            "estimated_diameter_max": 177.8381901842
        }
    },
    "is_potentially_hazardous_asteroid": false,
    "close_approach_data": [
        {
            "close_approach_date": "2014-10-10",
            "close_approach_date_full": "2014-Oct-10 04:29",
            "epoch_date_close_approach": 1412915340000,
            "relative_velocity": {
                "kilometers_per_second": "8.8386055509",
                "kilometers_per_hour": "31818.9799830827",
                "miles_per_hour": "19771.0767567105"
            },
            "miss_distance": {
                "astronomical": "0.0904083322",
                "lunar": "35.1688412258",
                "kilometers": "13524893.927372414",
                "miles": "8403979.3887667532"
            },
            "orbiting_body": "Earth"
        }
    ],
    "orbital_data": {
        "orbit_id": "3",
        "orbit_determination_date": "2017-04-06 08:38:15",
        "first_observation_date": "2014-10-01",
        "last_observation_date": "2014-10-03",
        "data_arc_in_days": 2,
        "observations_used": 14,
        "orbit_uncertainty": "8",
        "minimum_orbit_intersection": ".0903939",
        "jupiter_tisserand_invariant": "3.000",
        "epoch_osculation": "2456932.5",
        "eccentricity": ".6166866129541025",
        "semi_major_axis": "2.793897674072018",
        "inclination": "9.658467023878654",
        "ascending_node_longitude": "5.0176201164711",
        "orbital_period": "1705.745251900704",
        "perihelion_distance": "1.0709383805082",
        "perihelion_argument": "24.91162165770873",
        "aphelion_distance": "4.516856967635835",
        "perihelion_time": "2456952.209926721544",
        "mean_anomaly": "355.8401914870645",
        "mean_motion": ".2110514448736432",
        "equinox": "J2000",
        "orbit_class": {
            "orbit_class_type": "AMO",
            "orbit_class_description": "Near-Earth asteroid orbits similar to that of 1221 Amor",
            "orbit_class_range": "1.017 AU < q (perihelion) < 1.3 AU"
        }
    },
    "is_sentry_object": false
}